<?xml version="1.0" encoding="UTF-8"?>
<ndm xmlns:xsi="http://www.w3.org/2001/XMLSchema-instance" xsi:noNamespaceSchemaLocation="https://sanaregistry.org/r/ndmxml_unqualified/ndmxml-2.0.0-master-2.0.xsd">
<omm id="CCSDS_OMM_VERS" version="2.0">
<header><CREATION_DATE/><ORIGINATOR/></header><body><segment><metadata><OBJECT_NAME>ORBCOMM FM24</OBJECT_NAME><OBJECT_ID>1998-053D</OBJECT_ID><CENTER_NAME>EARTH</CENTER_NAME><REF_FRAME>TEME</REF_FRAME><TIME_SYSTEM>UTC</TIME_SYSTEM><MEAN_ELEMENT_THEORY>SGP4</MEAN_ELEMENT_THEORY></metadata><data><meanElements><EPOCH>2026-01-11T06:07:19.534080</EPOCH><MEAN_MOTION>14.38748495</MEAN_MOTION><ECCENTRICITY>.00029636</ECCENTRICITY><INCLINATION>45.0095</INCLINATION><RA_OF_ASC_NODE>2.0997</RA_OF_ASC_NODE><ARG_OF_PERICENTER>243.1887</ARG_OF_PERICENTER><MEAN_ANOMALY>116.8659</MEAN_ANOMALY></meanElements><tleParameters><EPHEMERIS_TYPE>0</EPHEMERIS_TYPE><CLASSIFICATION_TYPE>U</CLASSIFICATION_TYPE><NORAD_CAT_ID>25478</NORAD_CAT_ID><ELEMENT_SET_NO>999</ELEMENT_SET_NO><REV_AT_EPOCH>42740</REV_AT_EPOCH><BSTAR>.40955436E-3</BSTAR><MEAN_MOTION_DOT>.1127E-4</MEAN_MOTION_DOT><MEAN_MOTION_DDOT>0</MEAN_MOTION_DDOT></tleParameters></data></segment></body></omm>
<omm id="CCSDS_OMM_VERS" version="2.0">
<header><CREATION_DATE/><ORIGINATOR/></header><body><segment><metadata><OBJECT_NAME>ORBCOMM FM25</OBJECT_NAME><OBJECT_ID>1998-053E</OBJECT_ID><CENTER_NAME>EARTH</CENTER_NAME><REF_FRAME>TEME</REF_FRAME><TIME_SYSTEM>UTC</TIME_SYSTEM><MEAN_ELEMENT_THEORY>SGP4</MEAN_ELEMENT_THEORY></metadata><data><meanElements><EPOCH>2026-01-11T05:32:19.166496</EPOCH><MEAN_MOTION>14.38718076</MEAN_MOTION><ECCENTRICITY>.0005251</ECCENTRICITY><INCLINATION>45.0085</INCLINATION><RA_OF_ASC_NODE>0.5187</RA_OF_ASC_NODE><ARG_OF_PERICENTER>233.5256</ARG_OF_PERICENTER><MEAN_ANOMALY>126.5110</MEAN_ANOMALY></meanElements><tleParameters><EPHEMERIS_TYPE>0</EPHEMERIS_TYPE><CLASSIFICATION_TYPE>U</CLASSIFICATION_TYPE><NORAD_CAT_ID>25479</NORAD_CAT_ID><ELEMENT_SET_NO>999</ELEMENT_SET_NO><REV_AT_EPOCH>42769</REV_AT_EPOCH><BSTAR>.46301526E-3</BSTAR><MEAN_MOTION_DOT>.1292E-4</MEAN_MOTION_DOT><MEAN_MOTION_DDOT>0</MEAN_MOTION_DDOT></tleParameters></data></segment></body></omm>
<omm id="CCSDS_OMM_VERS" version="2.0">
<header><CREATION_DATE/><ORIGINATOR/></header><body><segment><metadata><OBJECT_NAME>ORBCOMM FM26</OBJECT_NAME><OBJECT_ID>1998-053F</OBJECT_ID><CENTER_NAME>EARTH</CENTER_NAME><REF_FRAME>TEME</REF_FRAME><TIME_SYSTEM>UTC</TIME_SYSTEM><MEAN_ELEMENT_THEORY>SGP4</MEAN_ELEMENT_THEORY></metadata><data><meanElements><EPOCH>2026-01-11T05:53:58.586208</EPOCH><MEAN_MOTION>14.37674823</MEAN_MOTION><ECCENTRICITY>.00074127</ECCENTRICITY><INCLINATION>45.0082</INCLINATION><RA_OF_ASC_NODE>358.4737</RA_OF_ASC_NODE><ARG_OF_PERICENTER>241.4031</ARG_OF_PERICENTER><MEAN_ANOMALY>118.6072</MEAN_ANOMALY></meanElements><tleParameters><EPHEMERIS_TYPE>0</EPHEMERIS_TYPE><CLASSIFICATION_TYPE>U</CLASSIFICATION_TYPE><NORAD_CAT_ID>25480</NORAD_CAT_ID><ELEMENT_SET_NO>999</ELEMENT_SET_NO><REV_AT_EPOCH>42758</REV_AT_EPOCH><BSTAR>.36820108E-3</BSTAR><MEAN_MOTION_DOT>.975E-5</MEAN_MOTION_DOT><MEAN_MOTION_DDOT>0</MEAN_MOTION_DDOT></tleParameters></data></segment></body></omm>
<omm id="CCSDS_OMM_VERS" version="2.0">
<header><CREATION_DATE/><ORIGINATOR/></header><body><segment><metadata><OBJECT_NAME>ORBCOMM FM27</OBJECT_NAME><OBJECT_ID>1998-053G</OBJECT_ID><CENTER_NAME>EARTH</CENTER_NAME><REF_FRAME>TEME</REF_FRAME><TIME_SYSTEM>UTC</TIME_SYSTEM><MEAN_ELEMENT_THEORY>SGP4</MEAN_ELEMENT_THEORY></metadata><data><meanElements><EPOCH>2026-01-11T06:47:41.240544</EPOCH><MEAN_MOTION>14.38755513</MEAN_MOTION><ECCENTRICITY>.00024278</ECCENTRICITY><INCLINATION>45.0068</INCLINATION><RA_OF_ASC_NODE>0.3921</RA_OF_ASC_NODE><ARG_OF_PERICENTER>274.1092</ARG_OF_PERICENTER><MEAN_ANOMALY>85.9479</MEAN_ANOMALY></meanElements><tleParameters><EPHEMERIS_TYPE>0</EPHEMERIS_TYPE><CLASSIFICATION_TYPE>U</CLASSIFICATION_TYPE><NORAD_CAT_ID>25481</NORAD_CAT_ID><ELEMENT_SET_NO>999</ELEMENT_SET_NO><REV_AT_EPOCH>42763</REV_AT_EPOCH><BSTAR>.44774666E-3</BSTAR><MEAN_MOTION_DOT>.1245E-4</MEAN_MOTION_DOT><MEAN_MOTION_DDOT>0</MEAN_MOTION_DDOT></tleParameters></data></segment></body></omm>
<omm id="CCSDS_OMM_VERS" version="2.0">
<header><CREATION_DATE/><ORIGINATOR/></header><body><segment><metadata><OBJECT_NAME>ORBCOMM FM28</OBJECT_NAME><OBJECT_ID>1998-053H</OBJECT_ID><CENTER_NAME>EARTH</CENTER_NAME><REF_FRAME>TEME</REF_FRAME><TIME_SYSTEM>UTC</TIME_SYSTEM><MEAN_ELEMENT_THEORY>SGP4</MEAN_ELEMENT_THEORY></metadata><data><meanElements><EPOCH>2026-01-11T05:29:12.539040</EPOCH><MEAN_MOTION>14.38871756</MEAN_MOTION><ECCENTRICITY>.00053012</ECCENTRICITY><INCLINATION>45.0062</INCLINATION><RA_OF_ASC_NODE>297.9026</RA_OF_ASC_NODE><ARG_OF_PERICENTER>280.2860</ARG_OF_PERICENTER><MEAN_ANOMALY>79.7391</MEAN_ANOMALY></meanElements><tleParameters><EPHEMERIS_TYPE>0</EPHEMERIS_TYPE><CLASSIFICATION_TYPE>U</CLASSIFICATION_TYPE><NORAD_CAT_ID>25482</NORAD_CAT_ID><ELEMENT_SET_NO>999</ELEMENT_SET_NO><REV_AT_EPOCH>42831</REV_AT_EPOCH><BSTAR>.35758367E-3</BSTAR><MEAN_MOTION_DOT>.969E-5</MEAN_MOTION_DOT><MEAN_MOTION_DDOT>0</MEAN_MOTION_DDOT></tleParameters></data></segment></body></omm>
<omm id="CCSDS_OMM_VERS" version="2.0">
<header><CREATION_DATE/><ORIGINATOR/></header><body><segment><metadata><OBJECT_NAME>ORBCOMM FM30</OBJECT_NAME><OBJECT_ID>1999-065A</OBJECT_ID><CENTER_NAME>EARTH</CENTER_NAME><REF_FRAME>TEME</REF_FRAME><TIME_SYSTEM>UTC</TIME_SYSTEM><MEAN_ELEMENT_THEORY>SGP4</MEAN_ELEMENT_THEORY></metadata><data><meanElements><EPOCH>2026-01-11T05:05:19.680576</EPOCH><MEAN_MOTION>14.37832527</MEAN_MOTION><ECCENTRICITY>.00056327</ECCENTRICITY><INCLINATION>45.0295</INCLINATION><RA_OF_ASC_NODE>184.6857</RA_OF_ASC_NODE><ARG_OF_PERICENTER>332.5244</ARG_OF_PERICENTER><MEAN_ANOMALY>27.5307</MEAN_ANOMALY></meanElements><tleParameters><EPHEMERIS_TYPE>0</EPHEMERIS_TYPE><CLASSIFICATION_TYPE>U</CLASSIFICATION_TYPE><NORAD_CAT_ID>25980</NORAD_CAT_ID><ELEMENT_SET_NO>999</ELEMENT_SET_NO><REV_AT_EPOCH>36438</REV_AT_EPOCH><BSTAR>.30987493E-3</BSTAR><MEAN_MOTION_DOT>.8E-5</MEAN_MOTION_DOT><MEAN_MOTION_DDOT>0</MEAN_MOTION_DDOT></tleParameters></data></segment></body></omm>
<omm id="CCSDS_OMM_VERS" version="2.0">
<header><CREATION_DATE/><ORIGINATOR/></header><body><segment><metadata><OBJECT_NAME>ORBCOMM FM31</OBJECT_NAME><OBJECT_ID>1999-065B</OBJECT_ID><CENTER_NAME>EARTH</CENTER_NAME><REF_FRAME>TEME</REF_FRAME><TIME_SYSTEM>UTC</TIME_SYSTEM><MEAN_ELEMENT_THEORY>SGP4</MEAN_ELEMENT_THEORY></metadata><data><meanElements><EPOCH>2026-01-11T04:41:01.233888</EPOCH><MEAN_MOTION>14.37758607</MEAN_MOTION><ECCENTRICITY>.00031296</ECCENTRICITY><INCLINATION>45.0210</INCLINATION><RA_OF_ASC_NODE>178.2143</RA_OF_ASC_NODE><ARG_OF_PERICENTER>3.4633</ARG_OF_PERICENTER><MEAN_ANOMALY>356.6236</MEAN_ANOMALY></meanElements><tleParameters><EPHEMERIS_TYPE>0</EPHEMERIS_TYPE><CLASSIFICATION_TYPE>U</CLASSIFICATION_TYPE><NORAD_CAT_ID>25981</NORAD_CAT_ID><ELEMENT_SET_NO>999</ELEMENT_SET_NO><REV_AT_EPOCH>36393</REV_AT_EPOCH><BSTAR>.32100847E-3</BSTAR><MEAN_MOTION_DOT>.833E-5</MEAN_MOTION_DOT><MEAN_MOTION_DDOT>0</MEAN_MOTION_DDOT></tleParameters></data></segment></body></omm>
<omm id="CCSDS_OMM_VERS" version="2.0">
<header><CREATION_DATE/><ORIGINATOR/></header><body><segment><metadata><OBJECT_NAME>ORBCOMM FM32</OBJECT_NAME><OBJECT_ID>1999-065C</OBJECT_ID><CENTER_NAME>EARTH</CENTER_NAME><REF_FRAME>TEME</REF_FRAME><TIME_SYSTEM>UTC</TIME_SYSTEM><MEAN_ELEMENT_THEORY>SGP4</MEAN_ELEMENT_THEORY></metadata><data><meanElements><EPOCH>2026-01-11T05:45:17.068896</EPOCH><MEAN_MOTION>14.36819464</MEAN_MOTION><ECCENTRICITY>.00056716</ECCENTRICITY><INCLINATION>45.0136</INCLINATION><RA_OF_ASC_NODE>195.9711</RA_OF_ASC_NODE><ARG_OF_PERICENTER>357.5843</ARG_OF_PERICENTER><MEAN_ANOMALY>2.4977</MEAN_ANOMALY></meanElements><tleParameters><EPHEMERIS_TYPE>0</EPHEMERIS_TYPE><CLASSIFICATION_TYPE>U</CLASSIFICATION_TYPE><NORAD_CAT_ID>25982</NORAD_CAT_ID><ELEMENT_SET_NO>999</ELEMENT_SET_NO><REV_AT_EPOCH>36451</REV_AT_EPOCH><BSTAR>.30313008E-3</BSTAR><MEAN_MOTION_DOT>.762E-5</MEAN_MOTION_DOT><MEAN_MOTION_DDOT>0</MEAN_MOTION_DDOT></tleParameters></data></segment></body></omm>

</ndm>
