ORBCOMM FM24            
1 25478U 98053D   26011.25508720  .00001127  00000+0  40955-3 0  9996
2 25478  45.0095   2.0997 0002963 243.1887 116.8659 14.38748495427407
ORBCOMM FM25            
1 25479U 98053E   26011.23077739  .00001292  00000+0  46302-3 0  9991
2 25479  45.0085   0.5187 0005251 233.5256 126.5110 14.38718076427690
ORBCOMM FM26            
1 25480U 98053F   26011.24581697  .00000975  00000+0  36820-3 0  9998
2 25480  45.0082 358.4737 0007412 241.4031 118.6072 14.37674823427582
ORBCOMM FM27            
1 25481U 98053G   26011.28311621  .00001245  00000+0  44775-3 0  9990
2 25481  45.0068   0.3921 0002427 274.1092  85.9479 14.38755513427636
ORBCOMM FM28            
1 25482U 98053H   26011.22861735  .00000969  00000+0  35758-3 0  9994
2 25482  45.0062 297.9026 0005301 280.2860  79.7391 14.38871756428314
ORBCOMM FM30            
1 25980U 99065A   26011.21203334  .00000800  00000+0  30987-3 0  9998
2 25980  45.0295 184.6857 0005632 332.5244  27.5307 14.37832527364389
ORBCOMM FM31            
1 25981U 99065B   26011.19515317  .00000833  00000+0  32101-3 0  9999
2 25981  45.0210 178.2143 0003129   3.4633 356.6236 14.37758607363932
ORBCOMM FM32            
1 25982U 99065C   26011.23978089  .00000762  00000+0  30313-3 0  9998
2 25982  45.0136 195.9711 0005671 357.5843   2.4977 14.36819464364518
